satname,norad_id,inclination_deg,eccentricity,mean_motion_rev_per_day,perigee_km,apogee_km,l1,l2
STARLINK-1376,45570,53.056,0.0001383,15.06397117,546.2626170045605,548.1781708597218,1 45570U 20025AR  25306.30231367  .00000372  00000+0  43859-4 0  9995,2 45570  53.0560 298.4811 0001383  91.8144 268.3004 15.06397117306166
STARLINK-1320,45572,53.0582,0.0009287,15.43077739,430.70287070211543,443.3613658223758,1 45572U 20025AT  25306.14541129  .00083941  00000+0  18567-2 0  9998,2 45572  53.0582 242.1223 0009287  30.1864 329.9675 15.43077739306963
STARLINK-1321,45573,53.0548,0.0001397,15.06407466,546.2212078211751,548.1561438149984,1 45573U 20025AU  25306.22214347  .00000466  00000+0  50153-4 0  9997,2 45573  53.0548 288.8432 0001397  82.1088 278.0060 15.06407466305991
STARLINK-1328,45576,53.0507,0.0010689,15.68926786,354.7644421673667,369.1734406489095,1 45576U 20025AX  25306.58335647  .00195417  00000+0  16276-2 0  9993,2 45576  53.0507 262.6209 0010689  49.0397  77.2102 15.68926786  5903
STARLINK-1331,45578,53.0575,0.0001888,15.06377952,545.9716141411272,548.586651272838,1 45578U 20025AZ  25306.20002588  .00000367  00000+0  43562-4 0  9998,2 45578  53.0575 288.9406 0001888  84.5971 275.5234 15.06377952306307
STARLINK-1333,45580,53.0554,0.0001251,15.0638488,546.3915320463502,548.1242658500678,1 45580U 20025BB  25306.27281529  .00002232  00000+0  16876-3 0  9992,2 45580  53.0554 298.6156 0001251  90.0921 270.0211 15.06384880306165
STARLINK-1335,45581,53.0562,0.0001628,15.06389975,546.1148315424898,548.3697350371285,1 45581U 20025BC  25306.21108617  .00004333  00000+0  30970-3 0  9998,2 45581  53.0562 288.8936 0001628  92.1252 267.9923 15.06389975306299
STARLINK-1337,45582,53.0564,0.0001488,15.06406313,546.1617205837038,548.2226985564721,1 45582U 20025BD  25306.23318994  .00001093  00000+0  92255-4 0  9997,2 45582  53.0564 288.7948 0001488  92.3730 267.7429 15.06406313306296
STARLINK-1347,45586,53.0526,0.0007735,15.31785471,465.1878131803096,475.7826317584695,1 45586U 20025BH  25306.21583412  .00082481  00000+0  26313-2 0  9998,2 45586  53.0526 274.0842 0007735  10.6077 349.5085 15.31785471306499
STARLINK-1360,45588,53.0448,0.0005479,15.75607366,339.22094808733164,346.58586416436356,1 45588U 20025BK  25305.97656506  .00108433  00000+0  69073-3 0  9994,2 45588  53.0448 193.3632 0005479 131.8437 228.3051 15.75607366307619
STARLINK-1364,45589,53.0558,0.0001611,15.06400865,546.0932336135374,548.324580064721,1 45589U 20025BL  25306.23687627  .00001017  00000+0  87133-4 0  9991,2 45589  53.0558 288.7785 0001611 100.5869 259.5301 15.06400865306292
STARLINK-1365,45590,53.0549,0.0001343,15.0639691,546.2909527762149,548.1511039426332,1 45590U 20025BM  25306.45157802  .00000660  00000+0  63232-4 0  9991,2 45590  53.0549 317.8119 0001343  91.9848 268.1294 15.06396910305922
STARLINK-1443,45660,53.0545,0.0001938,15.06431567,545.7726975181822,548.4569251202483,1 45660U 20035D   25306.23778280  .00007637  00000+0  53061-3 0  9994,2 45660  53.0545 278.7745 0001938  84.8084 275.3126 15.06431567299529
STARLINK-1446,45663,53.0279,0.0001796,15.3381279,463.2201804046763,465.67803733498204,1 45663U 20035G   25306.14900176  .00050368  00000+0  15197-2 0  9994,2 45663  53.0279 241.7567 0001796  56.4018 303.7154 15.33812790300039
STARLINK-1448,45665,53.0548,0.0001497,15.0639555,546.1884698601052,548.2619233017613,1 45665U 20035J   25306.24149465 -.00000249  00000+0  21980-5 0  9997,2 45665  53.0548 278.7533 0001497  88.8046 271.3114 15.06395550299517
STARLINK-1451,45668,53.0546,0.0001495,15.06401898,546.1704021079904,548.2410795875048,1 45668U 20035M   25306.24521167  .00002458  00000+0  18384-3 0  9998,2 45668  53.0546 279.0564 0001495  81.7531 278.3627 15.06401898299525
STARLINK-1452,45669,53.0407,0.0011526,15.26776338,477.5456267203781,493.36758269795337,1 45669U 20035N   25306.19648612  .00071745  00000+0  26723-2 0  9998,2 45669  53.0407 259.9932 0011526  27.7651 332.3960 15.26776338299782
STARLINK-1453,45670,53.054,0.0001432,15.06392029,546.2442746010838,548.2277014248502,1 45670U 20035P   25306.12262489  .00001455  00000+0  11659-3 0  9991,2 45670  53.0540 249.2906 0001432  84.4758 275.6395 15.06392029299812
STARLINK-1454,45671,53.0554,0.0001535,15.06410955,546.1149467947253,548.2410184943974,1 45671U 20035Q   25306.20094240 -.00001912  00000+0 -10949-3 0  9990,2 45671  53.0554 278.9394 0001535  92.9775 267.1390 15.06410955299501
STARLINK-1456,45673,53.054,0.0001496,15.06402786,546.1669883958139,548.2390501295777,1 45673U 20035S   25306.21569540  .00007022  00000+0  48978-3 0  9992,2 45673  53.0540 278.8747 0001496  85.2849 274.8311 15.06402786299525
STARLINK-1457,45674,53.054,0.0002161,15.11581411,529.8835130008738,532.8698048042515,1 45674U 20035T   25306.58335647  .01627887  00000+0  86991-1 0  9995,2 45674  53.0540 277.1622 0002161  97.0968  88.6436 15.11581411  5885
STARLINK-1458,45675,53.0544,0.000158,15.06398847,546.1208860889774,548.3092973499615,1 45675U 20035U   25306.21200518  .00001710  00000+0  13368-3 0  9994,2 45675  53.0544 278.8871 0001580  90.7500 269.3670 15.06398847299482
STARLINK-1460,45676,53.0562,0.0001753,15.06403341,545.9873064662024,548.4153300805883,1 45676U 20035V   25306.24885811  .00000991  00000+0  85386-4 0  9993,2 45676  53.0562 278.7224 0001753  93.4009 266.7181 15.06403341299484
STARLINK-1392,45677,53.0545,0.000173,15.06392175,546.0374510905722,548.4336299895995,1 45677U 20035W   25306.19357357  .00003611  00000+0  26125-3 0  9994,2 45677  53.0545 278.9730 0001730  90.8548 269.2639 15.06392175299516
STARLINK-1394,45679,53.0536,0.0001358,15.06422506,546.2021281813904,548.0830341156307,1 45679U 20035Y   25306.19080969  .00009041  00000+0  62471-3 0  9995,2 45679  53.0536 268.9833 0001358  99.0188 261.0955 15.06422506299656
STARLINK-1402,45685,53.0522,0.0002082,15.26859561,483.7782495144538,486.6361460384087,1 45685U 20035AE  25306.43552169  .00049598  00000+0  18554-2 0  9998,2 45685  53.0522 260.3671 0002082 111.6933 248.4286 15.26859561299808
STARLINK-1404,45686,53.0539,0.0001491,15.06382887,546.2314300248927,548.2965846052739,1 45686U 20035AF  25306.21662219  .00006872  00000+0  48002-3 0  9993,2 45686  53.0539 268.8713 0001491  89.3368 270.7792 15.06382887299667
STARLINK-1413,45689,53.0557,0.0001474,15.06410619,546.1582208436475,548.199804004109,1 45689U 20035AJ  25306.16868409 -.00000843  00000+0 -37710-4 0  9998,2 45689  53.0557 269.0807 0001474  96.6268 263.4889 15.06410619299568
STARLINK-1417,45693,53.0539,0.0001419,15.0639147,546.2549906129834,548.220411953208,1 45693U 20035AN  25306.16500777 -.00000821  00000+0 -36203-4 0  9996,2 45693  53.0539 269.1023 0001419  90.8145 269.3007 15.06391470299642
STARLINK-1420,45695,53.0539,0.0001558,15.0638667,546.1734370991626,548.3313884401814,1 45695U 20035AQ  25306.16591431  .00004387  00000+0  31334-3 0  9993,2 45695  53.0539 249.0854 0001558  80.1990 279.9175 15.06386670299938
STARLINK-1422,45696,53.0547,0.0001583,15.06393782,546.1343295847764,548.3269009717742,1 45696U 20035AR  25306.17606385  .00000675  00000+0  64244-4 0  9993,2 45696  53.0547 269.0501 0001583  96.5402 263.5767 15.06393782299642
STARLINK-1351,45697,53.0541,0.000127,15.0640961,546.3025893026361,548.0616203552627,1 45697U 20035AS  25306.15211153  .00013351  00000+0  91324-3 0  9990,2 45697  53.0541 249.1574 0001270  93.8331 266.2803 15.06409610299931
STARLINK-1398,45699,53.0502,0.0005255,15.51621082,408.4243339952309,415.5607601492038,1 45699U 20035AU  25306.44679723  .00104497  00000+0  17146-2 0  9996,2 45699  53.0502 206.8762 0005255 109.5361 250.6215 15.51621082300558
STARLINK-1400,45700,53.0541,0.0001397,15.06403247,546.2341365654966,548.1690761721165,1 45700U 20035AV  25306.12630241  .00002778  00000+0  20527-3 0  9993,2 45700  53.0541 249.2746 0001397  95.8375 264.2773 15.06403247299921
STARLINK-1403,45701,53.0545,0.000146,15.06380282,546.2608817148202,548.2831011403168,1 45701U 20035AW  25306.15580292  .00007895  00000+0  54862-3 0  9991,2 45701  53.0545 249.1412 0001460  81.8612 278.2543 15.06380282299928
STARLINK-1407,45703,53.04,0.0012126,15.41269143,434.0920266325511,450.63310217614344,1 45703U 20035AY  25306.43292831  .00030079  00000+0  71722-3 0  9997,2 45703  53.0400 206.0287 0012126  65.3973 294.8293 15.41269143300560
STARLINK-1411,45706,53.0522,0.0002523,15.41296018,440.56248781052545,444.0040718837372,1 45706U 20035BB  25306.58335647  .00091583  00000+0  21496-2 0  9998,2 45706  53.0522 232.4685 0002523 118.9834 299.4441 15.41296018  5912
STARLINK-1423,45710,53.0545,0.0001292,15.06392075,546.3410888565168,548.1306052001892,1 45710U 20035BF  25306.11525562  .00007215  00000+0  50290-3 0  9993,2 45710  53.0545 249.3244 0001292 104.9862 255.1270 15.06392075299924
STARLINK-1433,45711,53.0531,0.0001593,15.06397285,546.1166696839136,548.323088385574,1 45711U 20035BG  25306.16317878  .00011999  00000+0  82309-3 0  9998,2 45711  53.0531 249.1074 0001593  87.4155 272.7016 15.06397285299924
STARLINK-1434,45712,53.0521,0.0006291,15.15507009,515.1004876967945,523.7790187677128,1 45712U 20035BH  25306.11636319  .00014095  00000+0  74975-3 0  9998,2 45712  53.0521 245.3721 0006291  69.5918 290.5751 15.15507009299986
STARLINK-1465,45731,53.0547,0.0001348,15.06380359,546.3382103282884,548.2053005287526,1 45731U 20038B   25306.12999100  .00001568  00000+0  12422-3 0  9993,2 45731  53.0547  89.2540 0001348  90.7116 269.4027 15.06380359296966
STARLINK-1471,45735,53.0521,9.2e-05,15.4098274,442.5800679321583,443.8351953443798,1 45735U 20038F   25306.49951722  .00020498  00000+0  49822-3 0  9992,2 45735  53.0521  27.3910 0000920 134.5397 225.5682 15.40982740297870
STARLINK-1474,45738,53.0387,0.000386,15.67077827,364.6658362099588,369.8732900767045,1 45738U 20038J   25306.37626049  .00069366  00000+0  63743-3 0  9998,2 45738  53.0387 344.9463 0003860 347.2194  12.8723 15.67077827298456
